{
  "type": "FeatureCollection",
  "features": [
    {
      "type": "Feature",
      "properties": {
        "norad_id": 28899,
        "name": "INMARSAT 4-F2 (SOUTHPAN/PRN 122)",
        "group": "gnss",
        "lat": -3.8855925229688095,
        "lon": -8.997031487495475,
        "alt_km": 35784.64577973178,
        "timestamp": "2025-12-26T07:29:18.697814+00:00",
        "meta_object_name": "INMARSAT 4-F2 (SOUTHPAN/PRN 122)",
        "meta_object_id": "2005-044A",
        "meta_epoch": "2025-12-24T22:20:32.961120",
        "meta_mean_motion": 1.00270677,
        "meta_eccentricity": 0.00024672,
        "meta_inclination": 4.8665,
        "meta_ra_of_asc_node": 43.7125,
        "meta_arg_of_pericenter": 230.3576,
        "meta_mean_anomaly": 298.2665,
        "meta_ephemeris_type": 0,
        "meta_classification_type": "U",
        "meta_norad_cat_id": 28899,
        "meta_element_set_no": 999,
        "meta_rev_at_epoch": 7377,
        "meta_bstar": 0,
        "meta_mean_motion_dot": -2.41e-06,
        "meta_mean_motion_ddot": 0,
        "tle_line1": "1 28899U 05044A   25358.93093705 -.00000241  00000+0  00000+0 0  9994",
        "tle_line2": "2 28899   4.8665  43.7125 0002467 230.3576 298.2665  1.00270677 73776"
      },
      "geometry": {
        "type": "Point",
        "coordinates": [
          -8.997031487495475,
          -3.8855925229688095
        ]
      }
    },
    {
      "type": "Feature",
      "properties": {
        "norad_id": 29486,
        "name": "GPS BIIRM-2 (PRN 31)",
        "group": "gnss",
        "lat": -41.149911713978184,
        "lon": 16.455125329906533,
        "alt_km": 20472.575923571792,
        "timestamp": "2025-12-26T07:29:18.697827+00:00",
        "meta_object_name": "GPS BIIRM-2 (PRN 31)",
        "meta_object_id": "2006-042A",
        "meta_epoch": "2025-12-24T23:42:55.072224",
        "meta_mean_motion": 2.00553643,
        "meta_eccentricity": 0.01072754,
        "meta_inclination": 54.6955,
        "meta_ra_of_asc_node": 158.2549,
        "meta_arg_of_pericenter": 52.2355,
        "meta_mean_anomaly": 305.6317,
        "meta_ephemeris_type": 0,
        "meta_classification_type": "U",
        "meta_norad_cat_id": 29486,
        "meta_element_set_no": 999,
        "meta_rev_at_epoch": 14089,
        "meta_bstar": 0,
        "meta_mean_motion_dot": 9.7e-07,
        "meta_mean_motion_ddot": 0,
        "tle_line1": "1 29486U 06042A   25358.98813741  .00000097  00000+0  00000+0 0  9999",
        "tle_line2": "2 29486  54.6955 158.2549 0107275  52.2355 305.6317  2.00553643140898"
      },
      "geometry": {
        "type": "Point",
        "coordinates": [
          16.455125329906533,
          -41.149911713978184
        ]
      }
    },
    {
      "type": "Feature",
      "properties": {
        "norad_id": 29601,
        "name": "GPS BIIRM-3 (PRN 12)",
        "group": "gnss",
        "lat": -49.435783807579334,
        "lon": 165.85314225291518,
        "alt_km": 20399.31891900703,
        "timestamp": "2025-12-26T07:29:18.697839+00:00",
        "meta_object_name": "GPS BIIRM-3 (PRN 12)",
        "meta_object_id": "2006-052A",
        "meta_epoch": "2025-12-23T21:56:47.372352",
        "meta_mean_motion": 2.0057433,
        "meta_eccentricity": 0.00880015,
        "meta_inclination": 54.9684,
        "meta_ra_of_asc_node": 220.9547,
        "meta_arg_of_pericenter": 87.5747,
        "meta_mean_anomaly": 273.5181,
        "meta_ephemeris_type": 0,
        "meta_classification_type": "U",
        "meta_norad_cat_id": 29601,
        "meta_element_set_no": 999,
        "meta_rev_at_epoch": 13989,
        "meta_bstar": 0,
        "meta_mean_motion_dot": 6.7e-07,
        "meta_mean_motion_ddot": 0,
        "tle_line1": "1 29601U 06052A   25357.91443718  .00000067  00000+0  00000+0 0  9991",
        "tle_line2": "2 29601  54.9684 220.9547 0088001  87.5747 273.5181  2.00574330139891"
      },
      "geometry": {
        "type": "Point",
        "coordinates": [
          165.85314225291518,
          -49.435783807579334
        ]
      }
    },
    {
      "type": "Feature",
      "properties": {
        "norad_id": 32260,
        "name": "GPS BIIRM-4 (PRN 15)",
        "group": "gnss",
        "lat": 50.063053869743825,
        "lon": 147.4732853387543,
        "alt_km": 19753.195547798026,
        "timestamp": "2025-12-26T07:29:18.697852+00:00",
        "meta_object_name": "GPS BIIRM-4 (PRN 15)",
        "meta_object_id": "2007-047A",
        "meta_epoch": "2025-12-23T05:22:00.882048",
        "meta_mean_motion": 2.00564099,
        "meta_eccentricity": 0.01640403,
        "meta_inclination": 53.9621,
        "meta_ra_of_asc_node": 87.3254,
        "meta_arg_of_pericenter": 85.3777,
        "meta_mean_anomaly": 276.5133,
        "meta_ephemeris_type": 0,
        "meta_classification_type": "U",
        "meta_norad_cat_id": 32260,
        "meta_element_set_no": 999,
        "meta_rev_at_epoch": 13328,
        "meta_bstar": 0,
        "meta_mean_motion_dot": -6e-08,
        "meta_mean_motion_ddot": 0,
        "tle_line1": "1 32260U 07047A   25357.22362132 -.00000006  00000+0  00000+0 0  9999",
        "tle_line2": "2 32260  53.9621  87.3254 0164040  85.3777 276.5133  2.00564099133281"
      },
      "geometry": {
        "type": "Point",
        "coordinates": [
          147.4732853387543,
          50.063053869743825
        ]
      }
    },
    {
      "type": "Feature",
      "properties": {
        "norad_id": 32275,
        "name": "COSMOS 2433 (720)",
        "group": "gnss",
        "lat": 54.956617172480875,
        "lon": 1.8650991769161638,
        "alt_km": 19136.26636516848,
        "timestamp": "2025-12-26T07:29:18.697864+00:00",
        "meta_object_name": "COSMOS 2433 (720)",
        "meta_object_id": "2007-052A",
        "meta_epoch": "2025-12-24T08:26:16.805760",
        "meta_mean_motion": 2.13104186,
        "meta_eccentricity": 0.00051043,
        "meta_inclination": 65.677,
        "meta_ra_of_asc_node": 321.8159,
        "meta_arg_of_pericenter": 257.0223,
        "meta_mean_anomaly": 102.9214,
        "meta_ephemeris_type": 0,
        "meta_classification_type": "U",
        "meta_norad_cat_id": 32275,
        "meta_element_set_no": 999,
        "meta_rev_at_epoch": 14133,
        "meta_bstar": 0,
        "meta_mean_motion_dot": -3.3e-07,
        "meta_mean_motion_ddot": 0,
        "tle_line1": "1 32275U 07052A   25358.35158340 -.00000033  00000+0  00000+0 0  9990",
        "tle_line2": "2 32275  65.6770 321.8159 0005104 257.0223 102.9214  2.13104186141339"
      },
      "geometry": {
        "type": "Point",
        "coordinates": [
          1.8650991769161638,
          54.956617172480875
        ]
      }
    },
    {
      "type": "Feature",
      "properties": {
        "norad_id": 32276,
        "name": "COSMOS 2432 (719)",
        "group": "gnss",
        "lat": 7.704033449521306,
        "lon": -34.6359968115065,
        "alt_km": 19112.126756204667,
        "timestamp": "2025-12-26T07:29:18.697876+00:00",
        "meta_object_name": "COSMOS 2432 (719)",
        "meta_object_id": "2007-052B",
        "meta_epoch": "2025-12-24T04:32:38.772960",
        "meta_mean_motion": 2.13103387,
        "meta_eccentricity": 0.00113791,
        "meta_inclination": 65.6931,
        "meta_ra_of_asc_node": 321.9458,
        "meta_arg_of_pericenter": 314.7871,
        "meta_mean_anomaly": 225.1187,
        "meta_ephemeris_type": 0,
        "meta_classification_type": "U",
        "meta_norad_cat_id": 32276,
        "meta_element_set_no": 999,
        "meta_rev_at_epoch": 14135,
        "meta_bstar": 0,
        "meta_mean_motion_dot": -3.3e-07,
        "meta_mean_motion_ddot": 0,
        "tle_line1": "1 32276U 07052B   25358.18933765 -.00000033  00000+0  00000+0 0  9994",
        "tle_line2": "2 32276  65.6931 321.9458 0011379 314.7871 225.1187  2.13103387141354"
      },
      "geometry": {
        "type": "Point",
        "coordinates": [
          -34.6359968115065,
          7.704033449521306
        ]
      }
    },
    {
      "type": "Feature",
      "properties": {
        "norad_id": 32384,
        "name": "GPS BIIRM-5 (PRN 29)",
        "group": "gnss",
        "lat": -17.26614601105638,
        "lon": 113.57654186180015,
        "alt_km": 20120.763926919604,
        "timestamp": "2025-12-26T07:29:18.697890+00:00",
        "meta_object_name": "GPS BIIRM-5 (PRN 29)",
        "meta_object_id": "2007-062A",
        "meta_epoch": "2025-12-25T18:38:05.063136",
        "meta_mean_motion": 2.0054934,
        "meta_eccentricity": 0.00314029,
        "meta_inclination": 55.1709,
        "meta_ra_of_asc_node": 281.123,
        "meta_arg_of_pericenter": 162.2821,
        "meta_mean_anomaly": 11.9892,
        "meta_ephemeris_type": 0,
        "meta_classification_type": "U",
        "meta_norad_cat_id": 32384,
        "meta_element_set_no": 999,
        "meta_rev_at_epoch": 13203,
        "meta_bstar": 0,
        "meta_mean_motion_dot": -2.7e-07,
        "meta_mean_motion_ddot": 0,
        "tle_line1": "1 32384U 07062A   25359.77644749 -.00000027  00000+0  00000+0 0  9995",
        "tle_line2": "2 32384  55.1709 281.1230 0031402 162.2821  11.9892  2.00549340132034"
      },
      "geometry": {
        "type": "Point",
        "coordinates": [
          113.57654186180015,
          -17.26614601105638
        ]
      }
    }
  ]
}